{"type": "FeatureCollection", "features": [ {"type": "Feature", "properties": {"norad_id": 37077, "name": "FENGYUN 1C DEB", "group": "fengyun-1c-debris", "lat": -68.03714041768312, "lon": -131.98701789159728, "alt_km": 719.7053962326409, "timestamp": "2025-12-21T14:40:48.205746+00:00", "meta": {"OBJECT_NAME": "FENGYUN 1C DEB", "OBJECT_ID": "1999-025EFM", "EPOCH": "2025-12-20T22:31:12.417024", "MEAN_MOTION": 14.41212423, "ECCENTRICITY": 0.009539, "INCLINATION": 99.0344, "RA_OF_ASC_NODE": 70.5383, "ARG_OF_PERICENTER": 304.1526, "MEAN_ANOMALY": 55.0643, "EPHEMERIS_TYPE": 0, "CLASSIFICATION_TYPE": "U", "NORAD_CAT_ID": 37077, "ELEMENT_SET_NO": 999, "REV_AT_EPOCH": 85073, "BSTAR": 0.00025476, "MEAN_MOTION_DOT": 8.15e-06, "MEAN_MOTION_DDOT": 0}, "tle": {"line1": "1 37077U 99025EFM 25354.93833816  .00000815  00000+0  25476-3 0  9999", "line2": "2 37077  99.0344  70.5383 0095390 304.1526  55.0643 14.41212423850738"}}, "geometry": {"type": "Point", "coordinates": [-131.98701789159728, -68.03714041768312]}}, {"type": "Feature", "properties": {"norad_id": 37079, "name": "FENGYUN 1C DEB", "group": "fengyun-1c-debris", "lat": -20.625235590898725, "lon": 134.53639498263357, "alt_km": 703.8270717951664, "timestamp": "2025-12-21T14:40:48.205759+00:00", "meta": {"OBJECT_NAME": "FENGYUN 1C DEB", "OBJECT_ID": "1999-025EFP", "EPOCH": "2025-12-18T02:53:46.135104", "MEAN_MOTION": 14.6004098, "ECCENTRICITY": 0.00113024, "INCLINATION": 98.8569, "RA_OF_ASC_NODE": 127.4448, "ARG_OF_PERICENTER": 127.1954, "MEAN_ANOMALY": 233.0277, "EPHEMERIS_TYPE": 0, "CLASSIFICATION_TYPE": "U", "NORAD_CAT_ID": 37079, "ELEMENT_SET_NO": 999, "REV_AT_EPOCH": 64694, "BSTAR": 0.0027811281, "MEAN_MOTION_DOT": 0.00013341, "MEAN_MOTION_DDOT": 0}, "tle": {"line1": "1 37079U 99025EFP 25352.12067286  .00013341  00000+0  27811-2 0  9992", "line2": "2 37079  98.8569 127.4448 0011302 127.1954 233.0277 14.60040980646944"}}, "geometry": {"type": "Point", "coordinates": [134.53639498263357, -20.625235590898725]}}, {"type": "Feature", "properties": {"norad_id": 37081, "name": "FENGYUN 1C DEB", "group": "fengyun-1c-debris", "lat": 37.31428425864207, "lon": -25.622546965717298, "alt_km": 1034.9178546880066, "timestamp": "2025-12-21T14:40:48.205770+00:00", "meta": {"OBJECT_NAME": "FENGYUN 1C DEB", "OBJECT_ID": "1999-025EFR", "EPOCH": "2025-12-18T04:29:06.427680", "MEAN_MOTION": 14.13938427, "ECCENTRICITY": 0.02657439, "INCLINATION": 98.7044, "RA_OF_ASC_NODE": 144.3325, "ARG_OF_PERICENTER": 332.5055, "MEAN_ANOMALY": 26.2267, "EPHEMERIS_TYPE": 0, "CLASSIFICATION_TYPE": "U", "NORAD_CAT_ID": 37081, "ELEMENT_SET_NO": 999, "REV_AT_EPOCH": 58651, "BSTAR": 0.0028206507, "MEAN_MOTION_DOT": 7.469e-05, "MEAN_MOTION_DDOT": 0}, "tle": {"line1": "1 37081U 99025EFR 25352.18687995  .00007469  00000+0  28207-2 0  9990", "line2": "2 37081  98.7044 144.3325 0265743 332.5055  26.2267 14.13938427586517"}}, "geometry": {"type": "Point", "coordinates": [-25.622546965717298, 37.31428425864207]}}, {"type": "Feature", "properties": {"norad_id": 37400, "name": "FENGYUN 1C DEB", "group": "fengyun-1c-debris", "lat": 58.03009001371929, "lon": 26.639254866656437, "alt_km": 721.6764624766438, "timestamp": "2025-12-21T14:40:48.205780+00:00", "meta": {"OBJECT_NAME": "FENGYUN 1C DEB", "OBJECT_ID": "1999-025EFS", "EPOCH": "2025-12-20T06:24:59.132448", "MEAN_MOTION": 13.63652721, "ECCENTRICITY": 0.0401768, "INCLINATION": 98.8375, "RA_OF_ASC_NODE": 190.9804, "ARG_OF_PERICENTER": 116.9248, "MEAN_ANOMALY": 247.3534, "EPHEMERIS_TYPE": 0, "CLASSIFICATION_TYPE": "U", "NORAD_CAT_ID": 37400, "ELEMENT_SET_NO": 999, "REV_AT_EPOCH": 80296, "BSTAR": 0.0003109136, "MEAN_MOTION_DOT": 3.9e-06, "MEAN_MOTION_DDOT": 0}, "tle": {"line1": "1 37400U 99025EFS 25354.26735107  .00000390  00000+0  31091-3 0  9997", "line2": "2 37400  98.8375 190.9804 0401768 116.9248 247.3534 13.63652721802963"}}, "geometry": {"type": "Point", "coordinates": [26.639254866656437, 58.03009001371929]}}, {"type": "Feature", "properties": {"norad_id": 37404, "name": "FENGYUN 1C DEB", "group": "fengyun-1c-debris", "lat": -74.26318697828886, "lon": 146.37317647907332, "alt_km": 809.5976497780921, "timestamp": "2025-12-21T14:40:48.205791+00:00", "meta": {"OBJECT_NAME": "FENGYUN 1C DEB", "OBJECT_ID": "1999-025EFW", "EPOCH": "2025-12-19T20:07:18.270624", "MEAN_MOTION": 14.31663864, "ECCENTRICITY": 0.00447811, "INCLINATION": 98.4519, "RA_OF_ASC_NODE": 356.4953, "ARG_OF_PERICENTER": 141.4777, "MEAN_ANOMALY": 340.5806, "EPHEMERIS_TYPE": 0, "CLASSIFICATION_TYPE": "U", "NORAD_CAT_ID": 37404, "ELEMENT_SET_NO": 999, "REV_AT_EPOCH": 82842, "BSTAR": 0.00044732282, "MEAN_MOTION_DOT": 1.163e-05, "MEAN_MOTION_DDOT": 0}, "tle": {"line1": "1 37404U 99025EFW 25353.83840591  .00001163  00000+0  44732-3 0  9992", "line2": "2 37404  98.4519 356.4953 0044781 141.4777 340.5806 14.31663864828428"}}, "geometry": {"type": "Point", "coordinates": [146.37317647907332, -74.26318697828886]}}, {"type": "Feature", "properties": {"norad_id": 37406, "name": "FENGYUN 1C DEB", "group": "fengyun-1c-debris", "lat": 24.742148480396292, "lon": -136.79145992462196, "alt_km": 964.7995809963331, "timestamp": "2025-12-21T14:40:48.205801+00:00", "meta": {"OBJECT_NAME": "FENGYUN 1C DEB", "OBJECT_ID": "1999-025EFY", "EPOCH": "2025-12-18T11:54:12.055968", "MEAN_MOTION": 14.04312193, "ECCENTRICITY": 0.01490772, "INCLINATION": 98.4429, "RA_OF_ASC_NODE": 224.2353, "ARG_OF_PERICENTER": 250.1926, "MEAN_ANOMALY": 231.2149, "EPHEMERIS_TYPE": 0, "CLASSIFICATION_TYPE": "U", "NORAD_CAT_ID": 37406, "ELEMENT_SET_NO": 999, "REV_AT_EPOCH": 63313, "BSTAR": 0.000752683, "MEAN_MOTION_DOT": 1.28e-05, "MEAN_MOTION_DDOT": 0}, "tle": {"line1": "1 37406U 99025EFY 25352.49597287  .00001280  00000+0  75268-3 0  9994", "line2": "2 37406  98.4429 224.2353 0149077 250.1926 231.2149 14.04312193633138"}}, "geometry": {"type": "Point", "coordinates": [-136.79145992462196, 24.742148480396292]}}, {"type": "Feature", "properties": {"norad_id": 37415, "name": "FENGYUN 1C DEB", "group": "fengyun-1c-debris", "lat": 27.47243635221947, "lon": -72.66667847167051, "alt_km": 852.830987692384, "timestamp": "2025-12-21T14:40:48.205811+00:00", "meta": {"OBJECT_NAME": "FENGYUN 1C DEB", "OBJECT_ID": "1999-025EGH", "EPOCH": "2025-12-08T13:21:24.699168", "MEAN_MOTION": 13.52085555, "ECCENTRICITY": 0.0285076, "INCLINATION": 98.9817, "RA_OF_ASC_NODE": 90.7824, "ARG_OF_PERICENTER": 192.9583, "MEAN_ANOMALY": 166.412, "EPHEMERIS_TYPE": 0, "CLASSIFICATION_TYPE": "U", "NORAD_CAT_ID": 37415, "ELEMENT_SET_NO": 999, "REV_AT_EPOCH": 62265, "BSTAR": 0.00090162, "MEAN_MOTION_DOT": 7.27e-06, "MEAN_MOTION_DDOT": 0}, "tle": {"line1": "1 37415U 99025EGH 25342.55653587  .00000727  00000+0  90162-3 0  9991", "line2": "2 37415  98.9817  90.7824 0285076 192.9583 166.4120 13.52085555622659"}}, "geometry": {"type": "Point", "coordinates": [-72.66667847167051, 27.47243635221947]}}, {"type": "Feature", "properties": {"norad_id": 37417, "name": "FENGYUN 1C DEB", "group": "fengyun-1c-debris", "lat": -75.6645001297588, "lon": 130.87587418307507, "alt_km": 823.3200078055661, "timestamp": "2025-12-21T14:40:48.205822+00:00", "meta": {"OBJECT_NAME": "FENGYUN 1C DEB", "OBJECT_ID": "1999-025EGK", "EPOCH": "2025-12-14T05:42:40.741056", "MEAN_MOTION": 14.07392005, "ECCENTRICITY": 0.00781873, "INCLINATION": 98.797, "RA_OF_ASC_NODE": 340.9941, "ARG_OF_PERICENTER": 256.4358, "MEAN_ANOMALY": 102.8093, "EPHEMERIS_TYPE": 0, "CLASSIFICATION_TYPE": "U", "NORAD_CAT_ID": 37417, "ELEMENT_SET_NO": 999, "REV_AT_EPOCH": 68371, "BSTAR": 0.00034066216, "MEAN_MOTION_DOT": 5.45e-06, "MEAN_MOTION_DDOT": 0}, "tle": {"line1": "1 37417U 99025EGK 25348.23797154  .00000545  00000+0  34066-3 0  9992", "line2": "2 37417  98.7970 340.9941 0078187 256.4358 102.8093 14.07392005683717"}}, "geometry": {"type": "Point", "coordinates": [130.87587418307507, -75.6645001297588]}}, {"type": "Feature", "properties": {"norad_id": 37418, "name": "FENGYUN 1C DEB", "group": "fengyun-1c-debris", "lat": 36.05394685816601, "lon": 71.15573387377712, "alt_km": 2498.8094570785697, "timestamp": "2025-12-21T14:40:48.205832+00:00", "meta": {"OBJECT_NAME": "FENGYUN 1C DEB", "OBJECT_ID": "1999-025EGL", "EPOCH": "2025-12-19T23:37:42.566880", "MEAN_MOTION": 11.95144251, "ECCENTRICITY": 0.1076128, "INCLINATION": 98.6118, "RA_OF_ASC_NODE": 243.7385, "ARG_OF_PERICENTER": 305.6539, "MEAN_ANOMALY": 44.8873, "EPHEMERIS_TYPE": 0, "CLASSIFICATION_TYPE": "U", "NORAD_CAT_ID": 37418, "ELEMENT_SET_NO": 999, "REV_AT_EPOCH": 49571, "BSTAR": -0.00092645, "MEAN_MOTION_DOT": -4.14e-06, "MEAN_MOTION_DDOT": 0}, "tle": {"line1": "1 37418U 99025EGL 25353.98452045 -.00000414  00000+0 -92645-3 0  9992", "line2": "2 37418  98.6118 243.7385 1076128 305.6539  44.8873 11.95144251495719"}}, "geometry": {"type": "Point", "coordinates": [71.15573387377712, 36.05394685816601]}}, {"type": "Feature", "properties": {"norad_id": 37420, "name": "FENGYUN 1C DEB", "group": "fengyun-1c-debris", "lat": -70.38967916458135, "lon": 139.349367584946, "alt_km": 850.2751895173515, "timestamp": "2025-12-21T14:40:48.205842+00:00", "meta": {"OBJECT_NAME": "FENGYUN 1C DEB", "OBJECT_ID": "1999-025EGN", "EPOCH": "2025-12-20T18:36:12.337056", "MEAN_MOTION": 13.99759458, "ECCENTRICITY": 0.00709493, "INCLINATION": 98.8637, "RA_OF_ASC_NODE": 344.5139, "ARG_OF_PERICENTER": 253.6303, "MEAN_ANOMALY": 105.7053, "EPHEMERIS_TYPE": 0, "CLASSIFICATION_TYPE": "U", "NORAD_CAT_ID": 37420, "ELEMENT_SET_NO": 999, "REV_AT_EPOCH": 59877, "BSTAR": 0.00033965148, "MEAN_MOTION_DOT": 4.65e-06, "MEAN_MOTION_DDOT": 0}, "tle": {"line1": "1 37420U 99025EGN 25354.77514279  .00000465  00000+0  33965-3 0  9995", "line2": "2 37420  98.8637 344.5139 0070949 253.6303 105.7053 13.99759458598776"}}, "geometry": {"type": "Point", "coordinates": [139.349367584946, -70.38967916458135]}}]}